CCSDS_OMM_VERS = 2.0
CREATION_DATE  = 
ORIGINATOR     = 

OBJECT_NAME    = ATLAS CENTAUR 2
OBJECT_ID      = 1963-047A
CENTER_NAME    = EARTH
REF_FRAME      = TEME
TIME_SYSTEM    = UTC
MEAN_ELEMENT_THEORY = SGP/SGP4

EPOCH          = 2026-03-02T21:37:49.499040
MEAN_MOTION    = 14.12043210
ECCENTRICITY   = .05478458
INCLINATION    = 30.3525
RA_OF_ASC_NODE = 233.5815
ARG_OF_PERICENTER = 20.4608
MEAN_ANOMALY   = 341.7067

EPHEMERIS_TYPE = 0
CLASSIFICATION_TYPE = U
NORAD_CAT_ID   = 694
ELEMENT_SET_NO = 999
REV_AT_EPOCH   = 13066
BSTAR          = .18439986E-3
MEAN_MOTION_DOT = .1593E-4
MEAN_MOTION_DDOT = 0

CCSDS_OMM_VERS = 2.0
CREATION_DATE  = 
ORIGINATOR     = 

OBJECT_NAME    = THOR AGENA D R/B
OBJECT_ID      = 1964-002A
CENTER_NAME    = EARTH
REF_FRAME      = TEME
TIME_SYSTEM    = UTC
MEAN_ELEMENT_THEORY = SGP/SGP4

EPOCH          = 2026-03-02T23:07:22.342656
MEAN_MOTION    = 14.34015311
ECCENTRICITY   = .00319141
INCLINATION    = 99.1228
RA_OF_ASC_NODE = 74.9344
ARG_OF_PERICENTER = 278.2640
MEAN_ANOMALY   = 81.4924

EPHEMERIS_TYPE = 0
CLASSIFICATION_TYPE = U
NORAD_CAT_ID   = 733
ELEMENT_SET_NO = 999
REV_AT_EPOCH   = 23733
BSTAR          = .11096021E-3
MEAN_MOTION_DOT = .262E-5
MEAN_MOTION_DDOT = 0

CCSDS_OMM_VERS = 2.0
CREATION_DATE  = 
ORIGINATOR     = 

OBJECT_NAME    = SL-3 R/B
OBJECT_ID      = 1964-053B
CENTER_NAME    = EARTH
REF_FRAME      = TEME
TIME_SYSTEM    = UTC
MEAN_ELEMENT_THEORY = SGP/SGP4

EPOCH          = 2026-03-02T22:00:20.916864
MEAN_MOTION    = 14.61360544
ECCENTRICITY   = .00794566
INCLINATION    = 65.0788
RA_OF_ASC_NODE = 351.0923
ARG_OF_PERICENTER = 294.3697
MEAN_ANOMALY   = 64.9124

EPHEMERIS_TYPE = 0
CLASSIFICATION_TYPE = U
NORAD_CAT_ID   = 877
ELEMENT_SET_NO = 999
REV_AT_EPOCH   = 26580
BSTAR          = .10717022E-3
MEAN_MOTION_DOT = .429E-5
MEAN_MOTION_DDOT = 0

CCSDS_OMM_VERS = 2.0
CREATION_DATE  = 
ORIGINATOR     = 

OBJECT_NAME    = SL-8 R/B
OBJECT_ID      = 1967-045B
CENTER_NAME    = EARTH
REF_FRAME      = TEME
TIME_SYSTEM    = UTC
MEAN_ELEMENT_THEORY = SGP/SGP4

EPOCH          = 2026-03-02T22:21:31.708800
MEAN_MOTION    = 14.45614723
ECCENTRICITY   = .00639137
INCLINATION    = 74.0135
RA_OF_ASC_NODE = 0.7086
ARG_OF_PERICENTER = 8.5829
MEAN_ANOMALY   = 351.6405

EPHEMERIS_TYPE = 0
CLASSIFICATION_TYPE = U
NORAD_CAT_ID   = 2802
ELEMENT_SET_NO = 999
REV_AT_EPOCH   = 8804
BSTAR          = .15707557E-3
MEAN_MOTION_DOT = .541E-5
MEAN_MOTION_DDOT = 0

CCSDS_OMM_VERS = 2.0
CREATION_DATE  = 
ORIGINATOR     = 

OBJECT_NAME    = SL-8 R/B
OBJECT_ID      = 1968-040B
CENTER_NAME    = EARTH
REF_FRAME      = TEME
TIME_SYSTEM    = UTC
MEAN_ELEMENT_THEORY = SGP/SGP4

EPOCH          = 2026-03-02T20:30:57.140928
MEAN_MOTION    = 15.03199402
ECCENTRICITY   = .00242219
INCLINATION    = 74.0332
RA_OF_ASC_NODE = 327.6590
ARG_OF_PERICENTER = 153.6627
MEAN_ANOMALY   = 206.5799

EPHEMERIS_TYPE = 0
CLASSIFICATION_TYPE = U
NORAD_CAT_ID   = 3230
ELEMENT_SET_NO = 999
REV_AT_EPOCH   = 8898
BSTAR          = .27538539E-3
MEAN_MOTION_DOT = .3708E-4
MEAN_MOTION_DDOT = 0

CCSDS_OMM_VERS = 2.0
CREATION_DATE  = 
ORIGINATOR     = 

OBJECT_NAME    = OAO 2
OBJECT_ID      = 1968-110A
CENTER_NAME    = EARTH
REF_FRAME      = TEME
TIME_SYSTEM    = UTC
MEAN_ELEMENT_THEORY = SGP/SGP4

EPOCH          = 2026-03-02T22:52:45.733440
MEAN_MOTION    = 14.47302957
ECCENTRICITY   = .00051791
INCLINATION    = 34.9937
RA_OF_ASC_NODE = 302.8351
ARG_OF_PERICENTER = 150.7232
MEAN_ANOMALY   = 209.3750

EPHEMERIS_TYPE = 0
CLASSIFICATION_TYPE = U
NORAD_CAT_ID   = 3597
ELEMENT_SET_NO = 999
REV_AT_EPOCH   = 1812
BSTAR          = .9416791E-4
MEAN_MOTION_DOT = .33E-5
MEAN_MOTION_DDOT = 0

CCSDS_OMM_VERS = 2.0
CREATION_DATE  = 
ORIGINATOR     = 

OBJECT_NAME    = ISIS 1
OBJECT_ID      = 1969-009A
CENTER_NAME    = EARTH
REF_FRAME      = TEME
TIME_SYSTEM    = UTC
MEAN_ELEMENT_THEORY = SGP/SGP4

EPOCH          = 2026-03-02T17:28:07.472928
MEAN_MOTION    = 11.30411589
ECCENTRICITY   = .17078317
INCLINATION    = 88.4549
RA_OF_ASC_NODE = 156.0675
ARG_OF_PERICENTER = 103.2065
MEAN_ANOMALY   = 276.4365

EPHEMERIS_TYPE = 0
CLASSIFICATION_TYPE = U
NORAD_CAT_ID   = 3669
ELEMENT_SET_NO = 999
REV_AT_EPOCH   = 34774
BSTAR          = .12134122E-3
MEAN_MOTION_DOT = .194E-5
MEAN_MOTION_DDOT = 0

CCSDS_OMM_VERS = 2.0
CREATION_DATE  = 
ORIGINATOR     = 

OBJECT_NAME    = SERT 2
OBJECT_ID      = 1970-009A
CENTER_NAME    = EARTH
REF_FRAME      = TEME
TIME_SYSTEM    = UTC
MEAN_ELEMENT_THEORY = SGP/SGP4

EPOCH          = 2026-03-02T20:24:11.022048
MEAN_MOTION    = 13.58729134
ECCENTRICITY   = .00047816
INCLINATION    = 99.2751
RA_OF_ASC_NODE = 5.3183
ARG_OF_PERICENTER = 172.5034
MEAN_ANOMALY   = 247.7458

EPHEMERIS_TYPE = 0
CLASSIFICATION_TYPE = U
NORAD_CAT_ID   = 4327
ELEMENT_SET_NO = 999
REV_AT_EPOCH   = 77896
BSTAR          = .54494465E-4
MEAN_MOTION_DOT = -.1E-7
MEAN_MOTION_DDOT = 0

CCSDS_OMM_VERS = 2.0
CREATION_DATE  = 
ORIGINATOR     = 

OBJECT_NAME    = SL-3 R/B
OBJECT_ID      = 1971-028B
CENTER_NAME    = EARTH
REF_FRAME      = TEME
TIME_SYSTEM    = UTC
MEAN_ELEMENT_THEORY = SGP/SGP4

EPOCH          = 2026-03-02T23:43:49.594080
MEAN_MOTION    = 15.60463457
ECCENTRICITY   = .00142197
INCLINATION    = 81.2332
RA_OF_ASC_NODE = 60.3019
ARG_OF_PERICENTER = 314.2362
MEAN_ANOMALY   = 45.7722

EPHEMERIS_TYPE = 0
CLASSIFICATION_TYPE = U
NORAD_CAT_ID   = 5118
ELEMENT_SET_NO = 999
REV_AT_EPOCH   = 98762
BSTAR          = .53020209E-3
MEAN_MOTION_DOT = .4398E-3
MEAN_MOTION_DDOT = 0

CCSDS_OMM_VERS = 2.0
CREATION_DATE  = 
ORIGINATOR     = 

OBJECT_NAME    = ASTEX 1
OBJECT_ID      = 1971-089A
CENTER_NAME    = EARTH
REF_FRAME      = TEME
TIME_SYSTEM    = UTC
MEAN_ELEMENT_THEORY = SGP/SGP4

EPOCH          = 2026-03-02T18:53:14.049024
MEAN_MOTION    = 14.50760914
ECCENTRICITY   = .00178389
INCLINATION    = 92.7131
RA_OF_ASC_NODE = 149.5275
ARG_OF_PERICENTER = 106.2185
MEAN_ANOMALY   = 254.0985

EPHEMERIS_TYPE = 0
CLASSIFICATION_TYPE = U
NORAD_CAT_ID   = 5560
ELEMENT_SET_NO = 999
REV_AT_EPOCH   = 86130
BSTAR          = .15511979E-3
MEAN_MOTION_DOT = .61E-5
MEAN_MOTION_DDOT = 0

CCSDS_OMM_VERS = 2.0
CREATION_DATE  = 
ORIGINATOR     = 

OBJECT_NAME    = SL-8 R/B
OBJECT_ID      = 1971-119B
CENTER_NAME    = EARTH
REF_FRAME      = TEME
TIME_SYSTEM    = UTC
MEAN_ELEMENT_THEORY = SGP/SGP4

EPOCH          = 2026-03-02T20:07:04.824192
MEAN_MOTION    = 14.37642379
ECCENTRICITY   = .05500617
INCLINATION    = 73.8874
RA_OF_ASC_NODE = 188.5219
ARG_OF_PERICENTER = 156.5861
MEAN_ANOMALY   = 206.1418

EPHEMERIS_TYPE = 0
CLASSIFICATION_TYPE = U
NORAD_CAT_ID   = 5730
ELEMENT_SET_NO = 999
REV_AT_EPOCH   = 65450
BSTAR          = .91130177E-3
MEAN_MOTION_DOT = .17557E-3
MEAN_MOTION_DDOT = 0

CCSDS_OMM_VERS = 2.0
CREATION_DATE  = 
ORIGINATOR     = 

OBJECT_NAME    = OAO 3 (COPERNICUS)
OBJECT_ID      = 1972-065A
CENTER_NAME    = EARTH
REF_FRAME      = TEME
TIME_SYSTEM    = UTC
MEAN_ELEMENT_THEORY = SGP/SGP4

EPOCH          = 2026-03-02T19:45:09.930240
MEAN_MOTION    = 14.59991185
ECCENTRICITY   = .00059458
INCLINATION    = 35.0068
RA_OF_ASC_NODE = 336.4374
ARG_OF_PERICENTER = 107.0167
MEAN_ANOMALY   = 282.8288

EPHEMERIS_TYPE = 0
CLASSIFICATION_TYPE = U
NORAD_CAT_ID   = 6153
ELEMENT_SET_NO = 999
REV_AT_EPOCH   = 84519
BSTAR          = .10481437E-3
MEAN_MOTION_DOT = .489E-5
MEAN_MOTION_DDOT = 0

