ATLAS CENTAUR 2         
1 00694U 63047A   26061.90126735  .00001593  00000+0  18440-3 0  9994
2 00694  30.3525 233.5815 0547845  20.4608 341.7067 14.12043210130661
THOR AGENA D R/B        
1 00733U 64002A   26061.96345304  .00000262  00000+0  11096-3 0  9993
2 00733  99.1228  74.9344 0031914 278.2640  81.4924 14.34015311237333
SL-3 R/B                
1 00877U 64053B   26061.91690876  .00000429  00000+0  10717-3 0  9994
2 00877  65.0788 351.0923 0079456 294.3697  64.9124 14.61360544265803
SL-8 R/B                
1 02802U 67045B   26061.93161700  .00000541  00000+0  15708-3 0  9999
2 02802  74.0135   0.7086 0063913   8.5829 351.6405 14.45614723 88040
SL-8 R/B                
1 03230U 68040B   26061.85482802  .00003708  00000+0  27539-3 0  9994
2 03230  74.0332 327.6590 0024221 153.6627 206.5799 15.03199402 88987
OAO 2                   
1 03597U 68110A   26061.95330710  .00000330  00000+0  94168-4 0  9990
2 03597  34.9937 302.8351 0005179 150.7232 209.3750 14.47302957 18125
ISIS 1                  
1 03669U 69009A   26061.72786427  .00000194  00000+0  12134-3 0  9993
2 03669  88.4549 156.0675 1707831 103.2065 276.4365 11.30411589347749
SERT 2                  
1 04327U 70009A   26061.85012757 -.00000001  00000+0  54494-4 0  9993
2 04327  99.2751   5.3183 0004781 172.5034 247.7458 13.58729134778960
SL-3 R/B                
1 05118U 71028B   26061.98876845  .00043980  00000+0  53020-3 0  9999
2 05118  81.2332  60.3019 0014219 314.2362  45.7722 15.60463457987623
ASTEX 1                 
1 05560U 71089A   26061.78696816  .00000610  00000+0  15512-3 0  9990
2 05560  92.7131 149.5275 0017838 106.2185 254.0985 14.50760914861302
SL-8 R/B                
1 05730U 71119B   26061.83825028  .00017557  00000+0  91130-3 0  9996
2 05730  73.8874 188.5219 0550061 156.5861 206.1418 14.37642379654505
OAO 3 (COPERNICUS)      
1 06153U 72065A   26061.82303160  .00000489  00000+0  10481-3 0  9990
2 06153  35.0068 336.4374 0005945 107.0167 282.8288 14.59991185845191
